{"type": "FeatureCollection", "features": [ {"type": "Feature", "properties": {"norad_id": 31430, "name": "FENGYUN 1C DEB", "group": "fengyun-1c-debris", "lat": -10.26764621696081, "lon": 50.94560137491355, "alt_km": 799.2091710844197, "timestamp": "2025-12-12T07:43:20.796391+00:00", "meta": {"OBJECT_NAME": "FENGYUN 1C DEB", "OBJECT_ID": "1999-025BTS", "EPOCH": "2025-12-11T15:38:30.869088", "MEAN_MOTION": 14.25596186, "ECCENTRICITY": 0.00269185, "INCLINATION": 98.7436, "RA_OF_ASC_NODE": 48.6801, "ARG_OF_PERICENTER": 45.6074, "MEAN_ANOMALY": 107.6578, "EPHEMERIS_TYPE": 0, "CLASSIFICATION_TYPE": "U", "NORAD_CAT_ID": 31430, "ELEMENT_SET_NO": 999, "REV_AT_EPOCH": 96102, "BSTAR": 0.0014563792, "MEAN_MOTION_DOT": 3.418e-05, "MEAN_MOTION_DDOT": 0}, "tle": {"line1": "1 31430U 99025BTS 25345.65174617  .00003418  00000+0  14564-2 0  9999", "line2": "2 31430  98.7436  48.6801 0026918  45.6074 107.6578 14.25596186961028"}}, "geometry": {"type": "Point", "coordinates": [50.94560137491355, -10.26764621696081]}}, {"type": "Feature", "properties": {"norad_id": 31431, "name": "FENGYUN 1C DEB", "group": "fengyun-1c-debris", "lat": -79.92026939068882, "lon": -67.79141338638122, "alt_km": 987.0736291129906, "timestamp": "2025-12-12T07:43:20.796401+00:00", "meta": {"OBJECT_NAME": "FENGYUN 1C DEB", "OBJECT_ID": "1999-025BTT", "EPOCH": "2025-12-07T15:10:24.373056", "MEAN_MOTION": 14.03044754, "ECCENTRICITY": 0.01330657, "INCLINATION": 98.5386, "RA_OF_ASC_NODE": 230.1202, "ARG_OF_PERICENTER": 109.6865, "MEAN_ANOMALY": 251.8715, "EPHEMERIS_TYPE": 0, "CLASSIFICATION_TYPE": "U", "NORAD_CAT_ID": 31431, "ELEMENT_SET_NO": 999, "REV_AT_EPOCH": 94460, "BSTAR": 0.0022798155, "MEAN_MOTION_DOT": 3.793e-05, "MEAN_MOTION_DDOT": 0}, "tle": {"line1": "1 31431U 99025BTT 25341.63222654  .00003793  00000+0  22798-2 0  9993", "line2": "2 31431  98.5386 230.1202 0133065 109.6865 251.8715 14.03044754944600"}}, "geometry": {"type": "Point", "coordinates": [-67.79141338638122, -79.92026939068882]}}, {"type": "Feature", "properties": {"norad_id": 31433, "name": "FENGYUN 1C DEB", "group": "fengyun-1c-debris", "lat": 10.166379146488133, "lon": 71.32861253667784, "alt_km": 862.774861303229, "timestamp": "2025-12-12T07:43:20.796414+00:00", "meta": {"OBJECT_NAME": "FENGYUN 1C DEB", "OBJECT_ID": "1999-025BTV", "EPOCH": "2025-12-10T05:06:03.290112", "MEAN_MOTION": 14.25379283, "ECCENTRICITY": 0.0100275, "INCLINATION": 98.4097, "RA_OF_ASC_NODE": 247.7857, "ARG_OF_PERICENTER": 36.652, "MEAN_ANOMALY": 115.0039, "EPHEMERIS_TYPE": 0, "CLASSIFICATION_TYPE": "U", "NORAD_CAT_ID": 31433, "ELEMENT_SET_NO": 999, "REV_AT_EPOCH": 95516, "BSTAR": 0.0037305, "MEAN_MOTION_DOT": 9.24e-05, "MEAN_MOTION_DDOT": 0}, "tle": {"line1": "1 31433U 99025BTV 25344.21253808  .00009240  00000+0  37305-2 0  9990", "line2": "2 31433  98.4097 247.7857 0100275  36.6520 115.0039 14.25379283955169"}}, "geometry": {"type": "Point", "coordinates": [71.32861253667784, 10.166379146488133]}}, {"type": "Feature", "properties": {"norad_id": 31435, "name": "FENGYUN 1C DEB", "group": "fengyun-1c-debris", "lat": -24.03826982356514, "lon": -25.95309910644045, "alt_km": 622.3973860906317, "timestamp": "2025-12-12T07:43:20.796425+00:00", "meta": {"OBJECT_NAME": "FENGYUN 1C DEB", "OBJECT_ID": "1999-025BTX", "EPOCH": "2025-12-11T22:31:38.097696", "MEAN_MOTION": 14.53433535, "ECCENTRICITY": 0.01489807, "INCLINATION": 99.0366, "RA_OF_ASC_NODE": 157.7043, "ARG_OF_PERICENTER": 182.4231, "MEAN_ANOMALY": 177.6259, "EPHEMERIS_TYPE": 0, "CLASSIFICATION_TYPE": "U", "NORAD_CAT_ID": 31435, "ELEMENT_SET_NO": 999, "REV_AT_EPOCH": 98361, "BSTAR": 0.00043420239, "MEAN_MOTION_DOT": 2.034e-05, "MEAN_MOTION_DDOT": 0}, "tle": {"line1": "1 31435U 99025BTX 25345.93863539  .00002034  00000+0  43420-3 0  9990", "line2": "2 31435  99.0366 157.7043 0148980 182.4231 177.6259 14.53433535983619"}}, "geometry": {"type": "Point", "coordinates": [-25.95309910644045, -24.03826982356514]}}, {"type": "Feature", "properties": {"norad_id": 31436, "name": "FENGYUN 1C DEB", "group": "fengyun-1c-debris", "lat": 79.28335056803121, "lon": 74.93473144590682, "alt_km": 605.7578998358731, "timestamp": "2025-12-12T07:43:20.796435+00:00", "meta": {"OBJECT_NAME": "FENGYUN 1C DEB", "OBJECT_ID": "1999-025BTY", "EPOCH": "2025-12-08T13:28:51.661920", "MEAN_MOTION": 14.93022785, "ECCENTRICITY": 0.0044316, "INCLINATION": 98.882, "RA_OF_ASC_NODE": 194.9716, "ARG_OF_PERICENTER": 256.2521, "MEAN_ANOMALY": 159.099, "EPHEMERIS_TYPE": 0, "CLASSIFICATION_TYPE": "U", "NORAD_CAT_ID": 31436, "ELEMENT_SET_NO": 999, "REV_AT_EPOCH": 96814, "BSTAR": 0.005826, "MEAN_MOTION_DOT": 0.00062201, "MEAN_MOTION_DDOT": 0}, "tle": {"line1": "1 31436U 99025BTY 25342.56170905  .00062201  00000+0  58260-2 0  9994", "line2": "2 31436  98.8820 194.9716 0044316 256.2521 159.0990 14.93022785968144"}}, "geometry": {"type": "Point", "coordinates": [74.93473144590682, 79.28335056803121]}}, {"type": "Feature", "properties": {"norad_id": 31437, "name": "FENGYUN 1C DEB", "group": "fengyun-1c-debris", "lat": 49.84116257317105, "lon": 56.7136313029336, "alt_km": 756.0506971751784, "timestamp": "2025-12-12T07:43:20.796445+00:00", "meta": {"OBJECT_NAME": "FENGYUN 1C DEB", "OBJECT_ID": "1999-025BTZ", "EPOCH": "2025-12-09T16:13:35.437440", "MEAN_MOTION": 14.42435333, "ECCENTRICITY": 0.00152593, "INCLINATION": 98.8621, "RA_OF_ASC_NODE": 64.6212, "ARG_OF_PERICENTER": 256.234, "MEAN_ANOMALY": 103.715, "EPHEMERIS_TYPE": 0, "CLASSIFICATION_TYPE": "U", "NORAD_CAT_ID": 31437, "ELEMENT_SET_NO": 999, "REV_AT_EPOCH": 96466, "BSTAR": 0.0034638241, "MEAN_MOTION_DOT": 0.00011452, "MEAN_MOTION_DDOT": 0}, "tle": {"line1": "1 31437U 99025BTZ 25343.67610460  .00011452  00000+0  34638-2 0  9998", "line2": "2 31437  98.8621  64.6212 0015259 256.2340 103.7150 14.42435333964669"}}, "geometry": {"type": "Point", "coordinates": [56.7136313029336, 49.84116257317105]}}, {"type": "Feature", "properties": {"norad_id": 31439, "name": "FENGYUN 1C DEB", "group": "fengyun-1c-debris", "lat": -81.06962371867118, "lon": 84.79034019667877, "alt_km": 944.0197626425052, "timestamp": "2025-12-12T07:43:20.796455+00:00", "meta": {"OBJECT_NAME": "FENGYUN 1C DEB", "OBJECT_ID": "1999-025BUB", "EPOCH": "2025-12-11T06:27:20.803392", "MEAN_MOTION": 13.95576352, "ECCENTRICITY": 0.01378211, "INCLINATION": 98.917, "RA_OF_ASC_NODE": 351.3398, "ARG_OF_PERICENTER": 165.839, "MEAN_ANOMALY": 215.9218, "EPHEMERIS_TYPE": 0, "CLASSIFICATION_TYPE": "U", "NORAD_CAT_ID": 31439, "ELEMENT_SET_NO": 999, "REV_AT_EPOCH": 63212, "BSTAR": 0.00082710454, "MEAN_MOTION_DOT": 1.176e-05, "MEAN_MOTION_DDOT": 0}, "tle": {"line1": "1 31439U 99025BUB 25345.26899078  .00001176  00000+0  82710-3 0  9998", "line2": "2 31439  98.9170 351.3398 0137821 165.8390 215.9218 13.95576352632120"}}, "geometry": {"type": "Point", "coordinates": [84.79034019667877, -81.06962371867118]}}, {"type": "Feature", "properties": {"norad_id": 31440, "name": "FENGYUN 1C DEB", "group": "fengyun-1c-debris", "lat": 32.35805306689788, "lon": -100.089611706198, "alt_km": 792.5624912379026, "timestamp": "2025-12-12T07:43:20.796465+00:00", "meta": {"OBJECT_NAME": "FENGYUN 1C DEB", "OBJECT_ID": "1999-025BUC", "EPOCH": "2025-12-10T04:53:44.091456", "MEAN_MOTION": 14.36653105, "ECCENTRICITY": 0.00366239, "INCLINATION": 98.7454, "RA_OF_ASC_NODE": 72.1632, "ARG_OF_PERICENTER": 350.2386, "MEAN_ANOMALY": 9.8084, "EPHEMERIS_TYPE": 0, "CLASSIFICATION_TYPE": "U", "NORAD_CAT_ID": 31440, "ELEMENT_SET_NO": 999, "REV_AT_EPOCH": 96289, "BSTAR": 0.0026511584, "MEAN_MOTION_DOT": 7.827e-05, "MEAN_MOTION_DDOT": 0}, "tle": {"line1": "1 31440U 99025BUC 25344.20398254  .00007827  00000+0  26512-2 0  9999", "line2": "2 31440  98.7454  72.1632 0036623 350.2386   9.8084 14.36653105962896"}}, "geometry": {"type": "Point", "coordinates": [-100.089611706198, 32.35805306689788]}}, {"type": "Feature", "properties": {"norad_id": 31441, "name": "FENGYUN 1C DEB", "group": "fengyun-1c-debris", "lat": 79.64453191769447, "lon": 145.18345851546206, "alt_km": 660.2620048846647, "timestamp": "2025-12-12T07:43:20.796475+00:00", "meta": {"OBJECT_NAME": "FENGYUN 1C DEB", "OBJECT_ID": "1999-025BUD", "EPOCH": "2025-12-07T08:28:41.429856", "MEAN_MOTION": 14.7453624, "ECCENTRICITY": 0.01049906, "INCLINATION": 99.3118, "RA_OF_ASC_NODE": 203.3613, "ARG_OF_PERICENTER": 352.0587, "MEAN_ANOMALY": 7.8951, "EPHEMERIS_TYPE": 0, "CLASSIFICATION_TYPE": "U", "NORAD_CAT_ID": 31441, "ELEMENT_SET_NO": 999, "REV_AT_EPOCH": 64011, "BSTAR": 0.0080507132, "MEAN_MOTION_DOT": 0.0005895, "MEAN_MOTION_DDOT": 0}, "tle": {"line1": "1 31441U 99025BUD 25341.35325729  .00058950  00000+0  80507-2 0  9997", "line2": "2 31441  99.3118 203.3613 0104990 352.0587   7.8951 14.74536240640115"}}, "geometry": {"type": "Point", "coordinates": [145.18345851546206, 79.64453191769447]}}, {"type": "Feature", "properties": {"norad_id": 31442, "name": "FENGYUN 1C DEB", "group": "fengyun-1c-debris", "lat": 37.82316281989069, "lon": -101.00313586796076, "alt_km": 810.1587524753531, "timestamp": "2025-12-12T07:43:20.796491+00:00", "meta": {"OBJECT_NAME": "FENGYUN 1C DEB", "OBJECT_ID": "1999-025BUE", "EPOCH": "2025-12-10T11:31:37.831008", "MEAN_MOTION": 14.3392245, "ECCENTRICITY": 0.00792158, "INCLINATION": 98.5305, "RA_OF_ASC_NODE": 70.4894, "ARG_OF_PERICENTER": 19.4196, "MEAN_ANOMALY": 340.9978, "EPHEMERIS_TYPE": 0, "CLASSIFICATION_TYPE": "U", "NORAD_CAT_ID": 31442, "ELEMENT_SET_NO": 999, "REV_AT_EPOCH": 97328, "BSTAR": 0.00052575283, "MEAN_MOTION_DOT": 1.474e-05, "MEAN_MOTION_DDOT": 0}, "tle": {"line1": "1 31442U 99025BUE 25344.48029897  .00001474  00000+0  52575-3 0  9996", "line2": "2 31442  98.5305  70.4894 0079215  19.4196 340.9978 14.33922450973284"}}, "geometry": {"type": "Point", "coordinates": [-101.00313586796076, 37.82316281989069]}}]}